CTC2_L_00052001-01
1 32494U 26336JF  26037.47790509  .00000000  00000+0  00000-0 0  9990
2 32494  75.0000   0.0000 0000000   0.0000   0.0000 15.48880291    13
CTC2_L_00052001-02
1 32495U 26061WE  26037.47790509  .00000000  00000+0  00000-0 0  9996
2 32495  75.0000   0.0000 0000000   0.0000  90.0000 15.48880291    13
CTC2_L_00052001-03
1 32496U 22266SA  26037.47790509  .00000000  00000+0  00000-0 0  9990
2 32496  75.0000   0.0000 0000000   0.0000 180.0000 15.48880291    14
CTC2_L_00052001-04
1 32497U 23665JJ  26037.47790509  .00000000  00000+0  00000-0 0  9995
2 32497  75.0000   0.0000 0000000   0.0000 270.0000 15.48880291    15
CTC2_L_00052002-01
1 32498U 25096FI  26037.47790509  .00000000  00000+0  00000-0 0  9996
2 32498  75.0000  12.0000 0000000   0.0000  12.0000 15.48880291    13
CTC2_L_00052002-02
1 32499U 22889OR  26037.47790509  .00000000  00000+0  00000-0 0  9994
2 32499  75.0000  12.0000 0000000   0.0000 102.0000 15.48880291    14
CTC2_L_00052002-03
1 32500U 25367VQ  26037.47790509  .00000000  00000+0  00000-0 0  9991
2 32500  75.0000  12.0000 0000000   0.0000 192.0000 15.48880291    16
CTC2_L_00052002-04
1 32501U 24708ZQ  26037.47790509  .00000000  00000+0  00000-0 0  9990
2 32501  75.0000  12.0000 0000000   0.0000 282.0000 15.48880291    17
CTC2_L_00052003-01
1 32502U 22386YM  26037.47790509  .00000000  00000+0  00000-0 0  9991
2 32502  75.0000  24.0000 0000000   0.0000  24.0000 15.48880291    15
CTC2_L_00052003-02
1 32503U 23916SW  26037.47790509  .00000000  00000+0  00000-0 0  9992
2 32503  75.0000  24.0000 0000000   0.0000 114.0000 15.48880291    16
CTC2_L_00052003-03
1 32504U 25438UG  26037.47790509  .00000000  00000+0  00000-0 0  9994
2 32504  75.0000  24.0000 0000000   0.0000 204.0000 15.48880291    17
CTC2_L_00052003-04
1 32505U 24857TD  26037.47790509  .00000000  00000+0  00000-0 0  9999
2 32505  75.0000  24.0000 0000000   0.0000 294.0000 15.48880291    17
CTC2_L_00052004-01
1 32506U 25264CD  26037.47790509  .00000000  00000+0  00000-0 0  9993
2 32506  75.0000  36.0000 0000000   0.0000  36.0000 15.48880291    15
CTC2_L_00052004-02
1 32507U 25206HZ  26037.47790509  .00000000  00000+0  00000-0 0  9990
2 32507  75.0000  36.0000 0000000   0.0000 126.0000 15.48880291    16
CTC2_L_00052004-03
1 32508U 24604WO  26037.47790509  .00000000  00000+0  00000-0 0  9992
2 32508  75.0000  36.0000 0000000   0.0000 216.0000 15.48880291    17
CTC2_L_00052004-04
1 32509U 24995JE  26037.47790509  .00000000  00000+0  00000-0 0  9996
2 32509  75.0000  36.0000 0000000   0.0000 306.0000 15.48880291    18
CTC2_L_00052005-01
1 32510U 26556GV  26037.47790509  .00000000  00000+0  00000-0 0  9993
2 32510  75.0000  48.0000 0000000   0.0000  48.0000 15.48880291    16
CTC2_L_00052005-02
1 32511U 26925HS  26037.47790509  .00000000  00000+0  00000-0 0  9994
2 32511  75.0000  48.0000 0000000   0.0000 138.0000 15.48880291    17
CTC2_L_00052005-03
1 32512U 25906RY  26037.47790509  .00000000  00000+0  00000-0 0  9993
2 32512  75.0000  48.0000 0000000   0.0000 228.0000 15.48880291    18
CTC2_L_00052005-04
1 32513U 23414GO  26037.47790509  .00000000  00000+0  00000-0 0  9996
2 32513  75.0000  48.0000 0000000   0.0000 318.0000 15.48880291    19
CTC2_L_00052006-01
1 32514U 26534QV  26037.47790509  .00000000  00000+0  00000-0 0  9993
2 32514  75.0000  60.0000 0000000   0.0000  60.0000 15.48880291    18
CTC2_L_00052006-02
1 32515U 22593KE  26037.47790509  .00000000  00000+0  00000-0 0  9995
2 32515  75.0000  60.0000 0000000   0.0000 150.0000 15.48880291    19
CTC2_L_00052006-03
1 32516U 24196SS  26037.47790509  .00000000  00000+0  00000-0 0  9997
2 32516  75.0000  60.0000 0000000   0.0000 240.0000 15.48880291    10
CTC2_L_00052006-04
1 32517U 24514BZ  26037.47790509  .00000000  00000+0  00000-0 0  9992
2 32517  75.0000  60.0000 0000000   0.0000 330.0000 15.48880291    11
CTC2_L_00052007-01
1 32518U 24723IY  26037.47790509  .00000000  00000+0  00000-0 0  9995
2 32518  75.0000  72.0000 0000000   0.0000  72.0000 15.48880291    18
CTC2_L_00052007-02
1 32519U 23647DD  26037.47790509  .00000000  00000+0  00000-0 0  9990
2 32519  75.0000  72.0000 0000000   0.0000 162.0000 15.48880291    19
CTC2_L_00052007-03
1 32520U 24701QA  26037.47790509  .00000000  00000+0  00000-0 0  9994
2 32520  75.0000  72.0000 0000000   0.0000 252.0000 15.48880291    11
CTC2_L_00052007-04
1 32521U 22331BY  26037.47790509  .00000000  00000+0  00000-0 0  9992
2 32521  75.0000  72.0000 0000000   0.0000 342.0000 15.48880291    12
CTC2_L_00052008-01
1 32522U 23660NC  26037.47790509  .00000000  00000+0  00000-0 0  9999
2 32522  75.0000  84.0000 0000000   0.0000  84.0000 15.48880291    19
CTC2_L_00052008-02
1 32523U 25981HF  26037.47790509  .00000000  00000+0  00000-0 0  9998
2 32523  75.0000  84.0000 0000000   0.0000 174.0000 15.48880291    10
CTC2_L_00052008-03
1 32524U 24219UU  26037.47790509  .00000000  00000+0  00000-0 0  9992
2 32524  75.0000  84.0000 0000000   0.0000 264.0000 15.48880291    11
CTC2_L_00052008-04
1 32525U 24188HC  26037.47790509  .00000000  00000+0  00000-0 0  9998
2 32525  75.0000  84.0000 0000000   0.0000 354.0000 15.48880291    12
CTC2_L_00052009-01
1 32526U 26592NP  26037.47790509  .00000000  00000+0  00000-0 0  9990
2 32526  75.0000  96.0000 0000000   0.0000  96.0000 15.48880291    19
CTC2_L_00052009-02
1 32527U 23257TK  26037.47790509  .00000000  00000+0  00000-0 0  9996
2 32527  75.0000  96.0000 0000000   0.0000 186.0000 15.48880291    10
CTC2_L_00052009-03
1 32528U 23561YW  26037.47790509  .00000000  00000+0  00000-0 0  9995
2 32528  75.0000  96.0000 0000000   0.0000 276.0000 15.48880291    11
CTC2_L_00052009-04
1 32529U 26924RV  26037.47790509  .00000000  00000+0  00000-0 0  9992
2 32529  75.0000  96.0000 0000000   0.0000   6.0000 15.48880291    13
CTC2_L_00052010-01
1 32530U 22348J   26037.47790509  .00000000  00000+0  00000-0 0  9990
2 32530  75.0000 108.0000 0000000   0.0000 108.0000 15.48880291    12
CTC2_L_00052010-02
1 32531U 22070U   26037.47790509  .00000000  00000+0  00000-0 0  9993
2 32531  75.0000 108.0000 0000000   0.0000 198.0000 15.48880291    12
CTC2_L_00052010-03
1 32532U 26189AB  26037.47790509  .00000000  00000+0  00000-0 0  9999
2 32532  75.0000 108.0000 0000000   0.0000 288.0000 15.48880291    13
CTC2_L_00052010-04
1 32533U 26420XZ  26037.47790509  .00000000  00000+0  00000-0 0  9998
2 32533  75.0000 108.0000 0000000   0.0000  18.0000 15.48880291    15
CTC2_L_00052011-01
1 32534U 22363FZ  26037.47790509  .00000000  00000+0  00000-0 0  9991
2 32534  75.0000 120.0000 0000000   0.0000 120.0000 15.48880291    14
CTC2_L_00052011-02
1 32535U 26580AD  26037.47790509  .00000000  00000+0  00000-0 0  9997
2 32535  75.0000 120.0000 0000000   0.0000 210.0000 15.48880291    15
CTC2_L_00052011-03
1 32536U 25844PN  26037.47790509  .00000000  00000+0  00000-0 0  9990
2 32536  75.0000 120.0000 0000000   0.0000 300.0000 15.48880291    16
CTC2_L_00052011-04
1 32537U 26577OU  26037.47790509  .00000000  00000+0  00000-0 0  9995
2 32537  75.0000 120.0000 0000000   0.0000  30.0000 15.48880291    17
CTC2_L_00052012-01
1 32538U 22663TV  26037.47790509  .00000000  00000+0  00000-0 0  9998
2 32538  75.0000 132.0000 0000000   0.0000 132.0000 15.48880291    14
CTC2_L_00052012-02
1 32539U 25614KS  26037.47790509  .00000000  00000+0  00000-0 0  9998
2 32539  75.0000 132.0000 0000000   0.0000 222.0000 15.48880291    15
CTC2_L_00052012-03
1 32540U 25431UF  26037.47790509  .00000000  00000+0  00000-0 0  9997
2 32540  75.0000 132.0000 0000000   0.0000 312.0000 15.48880291    17
CTC2_L_00052012-04
1 32541U 25530AE  26037.47790509  .00000000  00000+0  00000-0 0  9998
2 32541  75.0000 132.0000 0000000   0.0000  42.0000 15.48880291    18
CTC2_L_00052013-01
1 32542U 23814FC  26037.47790509  .00000000  00000+0  00000-0 0  9992
2 32542  75.0000 144.0000 0000000   0.0000 144.0000 15.48880291    15
CTC2_L_00052013-02
1 32543U 24050VF  26037.47790509  .00000000  00000+0  00000-0 0  9996
2 32543  75.0000 144.0000 0000000   0.0000 234.0000 15.48880291    16
CTC2_L_00052013-03
1 32544U 23515NF  26037.47790509  .00000000  00000+0  00000-0 0  9992
2 32544  75.0000 144.0000 0000000   0.0000 324.0000 15.48880291    17
CTC2_L_00052013-04
1 32545U 22703GC  26037.47790509  .00000000  00000+0  00000-0 0  9991
2 32545  75.0000 144.0000 0000000   0.0000  54.0000 15.48880291    18
CTC2_L_00052014-01
1 32546U 22231Q   26037.47790509  .00000000  00000+0  00000-0 0  9998
2 32546  75.0000 156.0000 0000000   0.0000 156.0000 15.48880291    15
CTC2_L_00052014-02
1 32547U 22886WG  26037.47790509  .00000000  00000+0  00000-0 0  9995
2 32547  75.0000 156.0000 0000000   0.0000 246.0000 15.48880291    16
CTC2_L_00052014-03
1 32548U 26437AW  26037.47790509  .00000000  00000+0  00000-0 0  9992
2 32548  75.0000 156.0000 0000000   0.0000 336.0000 15.48880291    17
CTC2_L_00052014-04
1 32549U 23201WV  26037.47790509  .00000000  00000+0  00000-0 0  9999
2 32549  75.0000 156.0000 0000000   0.0000  66.0000 15.48880291    18
CTC2_L_00052015-01
1 32550U 26912BI  26037.47790509  .00000000  00000+0  00000-0 0  9993
2 32550  75.0000 168.0000 0000000   0.0000 168.0000 15.48880291    16
CTC2_L_00052015-02
1 32551U 23633OU  26037.47790509  .00000000  00000+0  00000-0 0  9991
2 32551  75.0000 168.0000 0000000   0.0000 258.0000 15.48880291    17
CTC2_L_00052015-03
1 32552U 22325GB  26037.47790509  .00000000  00000+0  00000-0 0  9999
2 32552  75.0000 168.0000 0000000   0.0000 348.0000 15.48880291    18
CTC2_L_00052015-04
1 32553U 23664LO  26037.47790509  .00000000  00000+0  00000-0 0  9997
2 32553  75.0000 168.0000 0000000   0.0000  78.0000 15.48880291    19
CTC2_L_00052016-01
1 32554U 22015PG  26037.47790509  .00000000  00000+0  00000-0 0  9997
2 32554  75.0000 180.0000 0000000   0.0000 180.0000 15.48880291    18
CTC2_L_00052016-02
1 32555U 26198TT  26037.47790509  .00000000  00000+0  00000-0 0  9994
2 32555  75.0000 180.0000 0000000   0.0000 270.0000 15.48880291    19
